NORAD_CAT_ID,OBJECT_NAME,OBJECT_TYPE,EPOCH,MEAN_MOTION,ECCENTRICITY,INCLINATION,RA_OF_ASC_NODE,ARG_OF_PERICENTER,MEAN_ANOMALY,BSTAR,MEAN_MOTION_DOT,MEAN_MOTION_DDOT,TLE_LINE0,TLE_LINE1,TLE_LINE2,SEMIMAJOR_AXIS,PERIOD,APOGEE,PERIGEE,DECAYED
53257.0,STARLINK-4144,PAYLOAD,2023-08-10 09:57:50,15.08844561,0.0001173,53.2169,104.1533,101.7901,258.3223,3.6137e-06,-2.3e-06,0.0,0 STARLINK-4144,1 53257U 22086R   23222.41517056 -.00000230  00000-0  36137-5 0  9991,2 53257  53.2169 104.1533 0001173 101.7901 258.3223 15.08844561 58637,6917.866,95.437,540.543,538.92,0.0
53257.0,STARLINK-4144,PAYLOAD,2023-08-11 01:51:41,15.08854471,0.000102,53.2161,101.1799,98.5786,261.5322,4.3786e-05,4.09e-06,0.0,0 STARLINK-4144,1 53257U 22086R   23223.07756230  .00000409  00000-0  43786-4 0  9997,2 53257  53.2161 101.1799 0001020  98.5786 261.5322 15.08854471 58733,6917.836,95.437,540.407,538.996,0.0
53257.0,STARLINK-4144,PAYLOAD,2023-08-11 16:10:10,15.08837688,0.0001127,53.2161,98.5039,91.9952,268.1169,9.3144e-05,1.195e-05,0.0,0 STARLINK-4144,1 53257U 22086R   23223.67373150  .00001195  00000-0  93144-4 0  9995,2 53257  53.2161  98.5039 0001127  91.9952 268.1169 15.08837688 58822,6917.887,95.438,540.532,538.973,0.0
53257.0,STARLINK-4144,PAYLOAD,2023-08-12 22:22:29,15.08843028,0.0001167,53.2164,92.8561,97.4475,262.665,5.8089e-05,6.37e-06,0.0,0 STARLINK-4144,1 53257U 22086R   23224.93228945  .00000637  00000-0  58089-4 0  9995,2 53257  53.2164  92.8561 0001167  97.4475 262.6650 15.08843028 59018,6917.871,95.437,540.543,538.929,0.0
53257.0,STARLINK-4144,PAYLOAD,2023-08-13 19:02:30,15.08837264,0.0001204,53.2164,88.9937,110.1778,249.9343,7.1476e-05,8.5e-06,0.0,0 STARLINK-4144,1 53257U 22086R   23225.79341372  .00000850  00000-0  71476-4 0  9992,2 53257  53.2164  88.9937 0001204 110.1778 249.9343 15.08837264 59148,6917.889,95.438,540.587,538.921,0.0
53257.0,STARLINK-4144,PAYLOAD,2023-08-15 01:14:50,15.08843639,0.0001054,53.2163,83.3388,86.2386,273.8727,0.00011013,1.466e-05,0.0,0 STARLINK-4144,1 53257U 22086R   23227.05197253  .00001466  00000-0  11013-3 0  9994,2 53257  53.2163  83.3388 0001054  86.2386 273.8727 15.08843639 59333,6917.869,95.437,540.463,539.005,0.0
53257.0,STARLINK-4144,PAYLOAD,2023-08-16 13:48:42,15.08842253,0.0001343,53.2142,76.4996,79.0068,281.1076,7.0017e-05,8.27e-06,0.0,0 STARLINK-4144,1 53257U 22086R   23228.57549481  .00000827  00000-0  70017-4 0  9996,2 53257  53.2142  76.4996 0001343  79.0068 281.1076 15.08842253 59561,6917.874,95.437,540.668,538.809,0.0
53257.0,STARLINK-4144,PAYLOAD,2023-08-17 20:01:01,15.08847102,0.0001331,53.2135,70.8485,92.6536,267.4608,0.00011511,1.545e-05,0.0,0 STARLINK-4144,1 53257U 22086R   23229.83404717  .00001545  00000-0  11511-3 0  9999,2 53257  53.2135  70.8485 0001331  92.6536 267.4608 15.08847102 59759,6917.859,95.437,540.644,538.803,0.0
53257.0,STARLINK-4144,PAYLOAD,2023-08-18 16:41:03,15.08830138,0.0001611,53.2141,66.9856,88.4925,271.6251,1.9438e-05,2.1e-07,0.0,0 STARLINK-4144,1 53257U 22086R   23230.69518156  .00000021  00000-0  19438-4 0  9993,2 53257  53.2141  66.9856 0001611  88.4925 271.6251 15.08830138 59886,6917.911,95.438,540.89,538.661,0.0
53257.0,STARLINK-4144,PAYLOAD,2023-08-19 22:53:22,15.0884218,0.0001299,53.2166,61.3346,89.6173,270.4968,2.4488e-05,1.02e-06,0.0,0 STARLINK-4144,1 53257U 22086R   23231.95373778  .00000102  00000-0  24488-4 0  9993,2 53257  53.2166  61.3346 0001299  89.6173 270.4968 15.08842180 60071,6917.874,95.437,540.637,538.84,0.0
53257.0,STARLINK-4144,PAYLOAD,2023-08-21 05:05:43,15.08838354,0.000266,53.2156,55.6836,79.8705,280.2587,0.0001176,1.584e-05,0.0,0 STARLINK-4144,1 53257U 22086R   23233.21230649  .00001584  00000-0  11760-3 0  9996,2 53257  53.2156  55.6836 0002660  79.8705 280.2587 15.08838354 60260,6917.885,95.438,541.591,537.91,0.0
53257.0,STARLINK-4144,PAYLOAD,2023-08-21 19:24:11,15.08828853,0.0001733,53.2158,53.0065,44.8439,315.2693,-8.9654e-05,-1.714e-05,0.0,0 STARLINK-4144,1 53257U 22086R   23233.80846824 -.00001714  00000-0 -89654-4 0  9994,2 53257  53.2158  53.0065 0001733  44.8439 315.2693 15.08828853 60354,6917.914,95.438,540.978,538.581,0.0
53257.0,STARLINK-4144,PAYLOAD,2023-08-21 20:59:35,15.08808045,8.07e-05,53.2161,52.7084,93.6437,266.4647,-0.00043072,-7.13e-05,0.0,0 STARLINK-4144,1 53257U 22086R   23233.87471557 -.00007130  00000-0 -43072-3 0  9999,2 53257  53.2161  52.7084 0000807  93.6437 266.4647 15.08808045 60364,6917.978,95.44,540.401,539.285,0.0
53257.0,STARLINK-4144,PAYLOAD,2023-08-22 22:25:45,15.08842665,9.61e-05,53.2162,47.9496,94.9008,265.2094,0.0004348,6.639e-05,0.0,0 STARLINK-4144,1 53257U 22086R   23234.93455614  .00006639  00000-0  43480-3 0  9997,2 53257  53.2162  47.9496 0000961  94.9008 265.2094 15.08842665 60524,6917.872,95.437,540.402,539.072,0.0
53257.0,STARLINK-4144,PAYLOAD,2023-08-24 14:10:23,15.08858432,0.0002004,53.2163,40.5184,54.4591,305.6588,0.00023605,3.472e-05,0.0,0 STARLINK-4144,1 53257U 22086R   23236.59054946  .00003472  00000-0  23605-3 0  9993,2 53257  53.2163  40.5184 0002004  54.4591 305.6588 15.08858432 60779,6917.824,95.436,541.075,538.303,0.0
53257.0,STARLINK-4144,PAYLOAD,2023-08-25 10:50:23,15.08853865,0.0001158,53.217,36.6495,89.5983,270.5142,9.086e-05,1.159e-05,0.0,0 STARLINK-4144,1 53257U 22086R   23237.45165907  .00001159  00000-0  90860-4 0  9997,2 53257  53.2170  36.6495 0001158  89.5983 270.5142 15.08853865 60907,6917.838,95.437,540.504,538.902,0.0
53257.0,STARLINK-4144,PAYLOAD,2023-08-25 17:11:55,15.08871689,0.0001359,53.216,35.4619,86.3928,273.7219,0.00037552,5.699e-05,0.0,0 STARLINK-4144,1 53257U 22086R   23237.71660956  .00005699  00000-0  37552-3 0  9991,2 53257  53.2160  35.4619 0001359  86.3928 273.7219 15.08871689 60946,6917.784,95.436,540.589,538.708,0.0
53257.0,STARLINK-4144,PAYLOAD,2023-08-25 20:22:41,15.08875488,0.0001439,53.2161,34.8678,74.2174,285.8977,0.00058552,9.052e-05,0.0,0 STARLINK-4144,1 53257U 22086R   23237.84908847  .00009052  00000-0  58552-3 0  9999,2 53257  53.2161  34.8678 0001439  74.2174 285.8977 15.08875488 61142,6917.772,95.435,540.632,538.641,0.0
53257.0,STARLINK-4144,PAYLOAD,2023-08-26 10:41:10,15.08838805,0.0001431,53.2143,32.193,93.5731,266.5425,-0.00011344,-2.093e-05,0.0,0 STARLINK-4144,1 53257U 22086R   23238.44525832 -.00002093  00000-0 -11344-3 0  9993,2 53257  53.2143  32.1930 0001431  93.5731 266.5425 15.08838805 61055,6917.884,95.438,540.739,538.759,0.0
53257.0,STARLINK-4144,PAYLOAD,2023-08-26 17:02:42,15.08834232,0.0001225,53.2163,31.0016,101.6906,258.4224,-0.00019169,-3.337e-05,0.0,0 STARLINK-4144,1 53257U 22086R   23238.71021923 -.00003337  00000-0 -19169-3 0  9990,2 53257  53.2163  31.0016 0001225 101.6906 258.4224 15.08834232 61277,6917.898,95.438,540.61,538.916,0.0
53257.0,STARLINK-4144,PAYLOAD,2023-08-27 15:18:07,15.08833026,0.0001321,53.2167,26.8376,106.4295,253.6842,0.00042187,6.431e-05,0.0,0 STARLINK-4144,1 53257U 22086R   23239.63758904  .00006431  00000-0  42187-3 0  9990,2 53257  53.2167  26.8376 0001321 106.4295 253.6842 15.08833026 61232,6917.902,95.438,540.681,538.853,0.0
53257.0,STARLINK-4144,PAYLOAD,2023-08-28 16:44:17,15.08842575,0.0001265,53.2164,22.0814,99.6132,260.5003,0.00034951,5.279e-05,0.0,0 STARLINK-4144,1 53257U 22086R   23240.69743041  .00005279  00000-0  34951-3 0  9993,2 53257  53.2164  22.0814 0001265  99.6132 260.5003 15.08842575 61396,6917.873,95.437,540.613,538.862,0.0
53257.0,STARLINK-4144,PAYLOAD,2023-08-28 19:55:04,15.08850349,0.0001278,53.2166,21.4858,100.9796,259.134,0.00047619,7.301e-05,0.0,0 STARLINK-4144,1 53257U 22086R   23240.82990782  .00007301  00000-0  47619-3 0  9997,2 53257  53.2166  21.4858 0001278 100.9796 259.1340 15.08850349 61593,6917.849,95.437,540.598,538.83,0.0
53257.0,STARLINK-4144,PAYLOAD,2023-08-29 08:38:09,15.08834696,0.0001236,53.2172,19.1063,92.3702,267.7432,-9.0085e-05,-1.721e-05,0.0,0 STARLINK-4144,1 53257U 22086R   23241.35983153 -.00001721  00000-0 -90085-4 0  9998,2 53257  53.2172  19.1063 0001236  92.3702 267.7432 15.08834696 61490,6917.897,95.438,540.617,538.907,0.0
53257.0,STARLINK-4144,PAYLOAD,2023-08-29 16:35:04,15.08843695,0.0001207,53.2172,17.6194,92.8191,267.294,0.00010134,1.325e-05,0.0,0 STARLINK-4144,1 53257U 22086R   23241.69102890  .00001325  00000-0  10134-3 0  9990,2 53257  53.2172  17.6194 0001207  92.8191 267.2940 15.08843695 61547,6917.869,95.437,540.569,538.899,0.0
53257.0,STARLINK-4144,PAYLOAD,2023-08-30 16:25:51,15.08847506,0.0001148,53.217,13.1593,84.9726,275.1397,0.00011517,1.546e-05,0.0,0 STARLINK-4144,1 53257U 22086R   23242.68462727  .00001546  00000-0  11517-3 0  9999,2 53257  53.2170  13.1593 0001148  84.9726 275.1397 15.08847506 61874,6917.857,95.437,540.517,538.928,0.0
53257.0,STARLINK-4144,PAYLOAD,2023-08-31 01:58:10,15.08846332,0.0001169,53.217,11.3755,85.765,274.3475,7.2744e-05,8.7e-06,0.0,0 STARLINK-4144,1 53257U 22086R   23243.08206733  .00000870  00000-0  72744-4 0  9996,2 53257  53.2170  11.3755 0001169  85.7650 274.3475 15.08846332 61753,6917.861,95.437,540.535,538.917,0.0
53257.0,STARLINK-4144,PAYLOAD,2023-08-31 11:30:29,15.08837998,0.0001222,53.216,9.5934,83.5714,276.5418,9.5089e-05,1.226e-05,0.0,0 STARLINK-4144,1 53257U 22086R   23243.47951301  .00001226  00000-0  95089-4 0  9990,2 53257  53.2160   9.5934 0001222  83.5714 276.5418 15.08837998 61813,6917.887,95.438,540.597,538.906,0.0
53257.0,STARLINK-4144,PAYLOAD,2023-09-01 14:32:03,15.08840914,0.0001036,53.2167,4.5381,83.7534,276.3576,8.8577e-05,1.122e-05,0.0,0 STARLINK-4144,1 53257U 22086R   23244.60559087  .00001122  00000-0  88577-4 0  9990,2 53257  53.2167   4.5381 0001036  83.7534 276.3576 15.08840914 62160,6917.878,95.437,540.459,539.026,0.0
53257.0,STARLINK-4144,PAYLOAD,2023-09-01 17:42:48,15.08850201,0.0001428,53.2168,3.9401,97.1381,262.9773,0.00015228,2.137e-05,0.0,0 STARLINK-4144,1 53257U 22086R   23244.73806628  .00002137  00000-0  15228-3 0  9999,2 53257  53.2168   3.9401 0001428  97.1381 262.9773 15.08850201 62004,6917.849,95.437,540.702,538.726,0.0
